{"spkid": "54076022", "covariance": {"epoch": "2459506.5", "data": [["1.692160318534545E-13", "-2.039044909927062E-13", "-3.838066353136446E-12", "1.172281074343095E-12", "-6.029595944880176E-12", "1.631926807729402E-12"], ["-2.039044909927062E-13", "2.457058634721205E-13", "4.631196908841078E-12", "-1.413057737576912E-12", "7.271466778539828E-12", "-1.966094611124624E-12"], ["-3.838066353136446E-12", "4.631196908841078E-12", "1.573925251057295E-10", "-4.68512136823013E-11", "2.209030815308447E-10", "-3.479799369227417E-11"], ["1.172281074343095E-12", "-1.413057737576912E-12", "-4.68512136823013E-11", "1.233377161420844E-10", "-1.751763783287713E-10", "9.682480675566826E-12"], ["-6.029595944880176E-12", "7.271466778539828E-12", "2.209030815308447E-10", "-1.751763783287713E-10", "4.246534898412374E-10", "-5.457122960195137E-11"], ["1.631926807729402E-12", "-1.966094611124624E-12", "-3.479799369227417E-11", "9.682480675566826E-12", "-5.457122960195137E-11", "1.638698919360321E-11"]], "elements": [{"label": "e", "units": null, "title": "eccentricity", "value": ".09185422107432395", "name": "e", "sigma": 4.11358762947205e-07}, {"title": "perihelion distance", "value": ".8834938073995757", "units": "au", "name": "q", "sigma": 4.95687263778403e-07, "label": "q"}, {"label": "tp", "units": "TDB", "title": "time of perihelion passage", "value": "2459394.650358292953", "name": "tp", "sigma": 1.25456177650098e-05}, {"label": "node", "title": "longitude of the ascending node", "value": "211.5140211425993", "units": "deg", "name": "om", "sigma": 1.11057514892998e-05}, {"label": "peri", "title": "argument of perihelion", "value": "64.36818100497013", "units": "deg", "sigma": 2.06071223085912e-05, "name": "w"}, {"label": "i", "units": "deg", "title": "inclination", "value": "1.448112937682591", "name": "i", "sigma": 4.04808463271251e-06}], "labels": ["e", "q", "tp", "node", "peri", "i"]}, "elements": [{"sigma": "4.1334E-7", "name": "e", "value": ".09154365620647598", "title": "eccentricity", "units": null, "label": "e"}, {"name": "a", "sigma": "1.0804E-7", "units": "au", "value": ".9736138910108106", "title": "semi-major axis", "label": "a"}, {"name": "q", "sigma": "5.0057E-7", "value": ".8844857156942676", "title": "perihelion distance", "units": "au", "label": "q"}, {"name": "i", "sigma": "3.9623E-6", "title": "inclination; angle with respect to x-y ecliptic plane", "value": "1.46415594101041", "units": "deg", "label": "i"}, {"name": "om", "sigma": "1.5751E-5", "title": "longitude of the ascending node", "value": "210.4321559838897", "units": "deg", "label": "node"}, {"units": "deg", "value": "64.11093274948807", "title": "argument of perihelion", "sigma": "1.7112E-5", "name": "w", "label": "peri"}, {"units": "deg", "title": "mean anomaly", "value": "54.00812843712354", "sigma": ".00030676", "name": "ma", "label": "M"}, {"name": "tp", "sigma": ".00029025", "title": "time of perihelion passage", "value": "2461147.857658740459", "units": "TDB", "label": "tp"}, {"label": "period", "sigma": "5.8406E-5", "name": "per", "units": "d", "title": "sidereal orbital period", "value": "350.8961225252923"}, {"units": "deg/d", "value": "1.025944651109821", "title": "mean motion", "sigma": "1.7077E-7", "name": "n", "label": "n"}, {"label": "Q", "units": "au", "value": "1.062742066327354", "title": "aphelion distance", "name": "ad", "sigma": "1.1793E-7"}], "epoch": "2461200.5"}